STARLINK-36121          
1 66940U 25286R   25354.83335647 -.01477523  00000+0 -10793-1 0  9997
2 66940  53.1566   9.7555 0000738  73.3650 263.0203 15.75536991  3297
STARLINK-36088          
1 66941U 25286S   25354.83335647 -.01613770  00000+0 -11589-1 0  9998
2 66941  53.1569   9.7641 0000902  72.6567 259.7434 15.75700912  3293
STARLINK-36100          
1 66942U 25286T   25354.83335647 -.01461294  00000+0 -10688-1 0  9990
2 66942  53.1568   9.7512 0001039  84.5396 253.8386 15.75470984  3221
STARLINK-36109          
1 66943U 25286U   25354.83335647 -.01348068  00000+0 -98219-2 0  9991
2 66943  53.1564   9.7469 0000861  89.2117 251.2153 15.75327228  3220
STARLINK-36112          
1 66944U 25286V   25354.83335647 -.01319344  00000+0 -96079-2 0  9999
2 66944  53.1566   9.7433 0000795 107.0252 235.3677 15.75280347  3290
STARLINK-36110          
1 66945U 25286W   25354.83335647 -.01205404  00000+0 -89018-2 0  9996
2 66945  53.1566   9.7387 0001092  94.9678 249.4497 15.75162747  3295
STARLINK-36115          
1 66946U 25286X   25354.83335647 -.01148911  00000+0 -84599-2 0  9995
2 66946  53.1566   9.7345 0001022  97.9333 248.4642 15.75092919  3298
STARLINK-36089          
1 66947U 25286Y   25354.83335647 -.00946448  00000+0 -70031-2 0  9992
2 66947  53.1567   9.7255 0000912 103.6323 246.7512 15.74898226  3292
STARLINK-36116          
1 66948U 25286Z   25354.83335647 -.01014982  00000+0 -74176-2 0  9997
2 66948  53.1569   9.7304 0000767  92.3699 256.0561 15.74947986  3294
STARLINK-36096          
1 66949U 25286AA  25354.83335647 -.00883606  00000+0 -65066-2 0  9992
2 66949  53.1567   9.7224 0000921  99.9543 252.3903 15.74832193  3299
STARLINK-36111          
1 66950U 25286AB  25354.83335647 -.00783738  00000+0 -57379-2 0  9997
2 66950  53.1569   9.7138 0001240 101.8577 254.4246 15.74685289  3297
STARLINK-35999          
1 66951U 25286AC  25354.83335647 -.00602741  00000+0 -43381-2 0  9990
2 66951  53.1568   9.7097 0000975 112.1900 246.0630 15.74582793  3290
