CCSDS_OMM_VERS = 2.0
CREATION_DATE  = 
ORIGINATOR     = 

OBJECT_NAME    = STARLINK-36121
OBJECT_ID      = 2025-286R
CENTER_NAME    = EARTH
REF_FRAME      = TEME
TIME_SYSTEM    = UTC
MEAN_ELEMENT_THEORY = SGP/SGP4

EPOCH          = 2025-12-20T20:00:01.999008
MEAN_MOTION    = 15.75536991
ECCENTRICITY   = .0000738
INCLINATION    = 53.1566
RA_OF_ASC_NODE = 9.7555
ARG_OF_PERICENTER = 73.3650
MEAN_ANOMALY   = 263.0203

EPHEMERIS_TYPE = 0
CLASSIFICATION_TYPE = U
NORAD_CAT_ID   = 66940
ELEMENT_SET_NO = 999
REV_AT_EPOCH   = 329
BSTAR          = -.10793E-1
MEAN_MOTION_DOT = -.1477523E-1
MEAN_MOTION_DDOT = 0

CCSDS_OMM_VERS = 2.0
CREATION_DATE  = 
ORIGINATOR     = 

OBJECT_NAME    = STARLINK-36088
OBJECT_ID      = 2025-286S
CENTER_NAME    = EARTH
REF_FRAME      = TEME
TIME_SYSTEM    = UTC
MEAN_ELEMENT_THEORY = SGP/SGP4

EPOCH          = 2025-12-20T20:00:01.999008
MEAN_MOTION    = 15.75700912
ECCENTRICITY   = .0000902
INCLINATION    = 53.1569
RA_OF_ASC_NODE = 9.7641
ARG_OF_PERICENTER = 72.6567
MEAN_ANOMALY   = 259.7434

EPHEMERIS_TYPE = 0
CLASSIFICATION_TYPE = U
NORAD_CAT_ID   = 66941
ELEMENT_SET_NO = 999
REV_AT_EPOCH   = 329
BSTAR          = -.11589E-1
MEAN_MOTION_DOT = -.161377E-1
MEAN_MOTION_DDOT = 0

CCSDS_OMM_VERS = 2.0
CREATION_DATE  = 
ORIGINATOR     = 

OBJECT_NAME    = STARLINK-36100
OBJECT_ID      = 2025-286T
CENTER_NAME    = EARTH
REF_FRAME      = TEME
TIME_SYSTEM    = UTC
MEAN_ELEMENT_THEORY = SGP/SGP4

EPOCH          = 2025-12-20T20:00:01.999008
MEAN_MOTION    = 15.75470984
ECCENTRICITY   = .0001039
INCLINATION    = 53.1568
RA_OF_ASC_NODE = 9.7512
ARG_OF_PERICENTER = 84.5396
MEAN_ANOMALY   = 253.8386

EPHEMERIS_TYPE = 0
CLASSIFICATION_TYPE = U
NORAD_CAT_ID   = 66942
ELEMENT_SET_NO = 999
REV_AT_EPOCH   = 322
BSTAR          = -.10688E-1
MEAN_MOTION_DOT = -.1461294E-1
MEAN_MOTION_DDOT = 0

CCSDS_OMM_VERS = 2.0
CREATION_DATE  = 
ORIGINATOR     = 

OBJECT_NAME    = STARLINK-36109
OBJECT_ID      = 2025-286U
CENTER_NAME    = EARTH
REF_FRAME      = TEME
TIME_SYSTEM    = UTC
MEAN_ELEMENT_THEORY = SGP/SGP4

EPOCH          = 2025-12-20T20:00:01.999008
MEAN_MOTION    = 15.75327228
ECCENTRICITY   = .0000861
INCLINATION    = 53.1564
RA_OF_ASC_NODE = 9.7469
ARG_OF_PERICENTER = 89.2117
MEAN_ANOMALY   = 251.2153

EPHEMERIS_TYPE = 0
CLASSIFICATION_TYPE = U
NORAD_CAT_ID   = 66943
ELEMENT_SET_NO = 999
REV_AT_EPOCH   = 322
BSTAR          = -.98219E-2
MEAN_MOTION_DOT = -.1348068E-1
MEAN_MOTION_DDOT = 0

CCSDS_OMM_VERS = 2.0
CREATION_DATE  = 
ORIGINATOR     = 

OBJECT_NAME    = STARLINK-36112
OBJECT_ID      = 2025-286V
CENTER_NAME    = EARTH
REF_FRAME      = TEME
TIME_SYSTEM    = UTC
MEAN_ELEMENT_THEORY = SGP/SGP4

EPOCH          = 2025-12-20T20:00:01.999008
MEAN_MOTION    = 15.75280347
ECCENTRICITY   = .0000795
INCLINATION    = 53.1566
RA_OF_ASC_NODE = 9.7433
ARG_OF_PERICENTER = 107.0252
MEAN_ANOMALY   = 235.3677

EPHEMERIS_TYPE = 0
CLASSIFICATION_TYPE = U
NORAD_CAT_ID   = 66944
ELEMENT_SET_NO = 999
REV_AT_EPOCH   = 329
BSTAR          = -.96079E-2
MEAN_MOTION_DOT = -.1319344E-1
MEAN_MOTION_DDOT = 0

CCSDS_OMM_VERS = 2.0
CREATION_DATE  = 
ORIGINATOR     = 

OBJECT_NAME    = STARLINK-36110
OBJECT_ID      = 2025-286W
CENTER_NAME    = EARTH
REF_FRAME      = TEME
TIME_SYSTEM    = UTC
MEAN_ELEMENT_THEORY = SGP/SGP4

EPOCH          = 2025-12-20T20:00:01.999008
MEAN_MOTION    = 15.75162747
ECCENTRICITY   = .0001092
INCLINATION    = 53.1566
RA_OF_ASC_NODE = 9.7387
ARG_OF_PERICENTER = 94.9678
MEAN_ANOMALY   = 249.4497

EPHEMERIS_TYPE = 0
CLASSIFICATION_TYPE = U
NORAD_CAT_ID   = 66945
ELEMENT_SET_NO = 999
REV_AT_EPOCH   = 329
BSTAR          = -.89018E-2
MEAN_MOTION_DOT = -.1205404E-1
MEAN_MOTION_DDOT = 0

CCSDS_OMM_VERS = 2.0
CREATION_DATE  = 
ORIGINATOR     = 

OBJECT_NAME    = STARLINK-36115
OBJECT_ID      = 2025-286X
CENTER_NAME    = EARTH
REF_FRAME      = TEME
TIME_SYSTEM    = UTC
MEAN_ELEMENT_THEORY = SGP/SGP4

EPOCH          = 2025-12-20T20:00:01.999008
MEAN_MOTION    = 15.75092919
ECCENTRICITY   = .0001022
INCLINATION    = 53.1566
RA_OF_ASC_NODE = 9.7345
ARG_OF_PERICENTER = 97.9333
MEAN_ANOMALY   = 248.4642

EPHEMERIS_TYPE = 0
CLASSIFICATION_TYPE = U
NORAD_CAT_ID   = 66946
ELEMENT_SET_NO = 999
REV_AT_EPOCH   = 329
BSTAR          = -.84599E-2
MEAN_MOTION_DOT = -.1148911E-1
MEAN_MOTION_DDOT = 0

CCSDS_OMM_VERS = 2.0
CREATION_DATE  = 
ORIGINATOR     = 

OBJECT_NAME    = STARLINK-36089
OBJECT_ID      = 2025-286Y
CENTER_NAME    = EARTH
REF_FRAME      = TEME
TIME_SYSTEM    = UTC
MEAN_ELEMENT_THEORY = SGP/SGP4

EPOCH          = 2025-12-20T20:00:01.999008
MEAN_MOTION    = 15.74898226
ECCENTRICITY   = .0000912
INCLINATION    = 53.1567
RA_OF_ASC_NODE = 9.7255
ARG_OF_PERICENTER = 103.6323
MEAN_ANOMALY   = 246.7512

EPHEMERIS_TYPE = 0
CLASSIFICATION_TYPE = U
NORAD_CAT_ID   = 66947
ELEMENT_SET_NO = 999
REV_AT_EPOCH   = 329
BSTAR          = -.70031E-2
MEAN_MOTION_DOT = -.946448E-2
MEAN_MOTION_DDOT = 0

CCSDS_OMM_VERS = 2.0
CREATION_DATE  = 
ORIGINATOR     = 

OBJECT_NAME    = STARLINK-36116
OBJECT_ID      = 2025-286Z
CENTER_NAME    = EARTH
REF_FRAME      = TEME
TIME_SYSTEM    = UTC
MEAN_ELEMENT_THEORY = SGP/SGP4

EPOCH          = 2025-12-20T20:00:01.999008
MEAN_MOTION    = 15.74947986
ECCENTRICITY   = .0000767
INCLINATION    = 53.1569
RA_OF_ASC_NODE = 9.7304
ARG_OF_PERICENTER = 92.3699
MEAN_ANOMALY   = 256.0561

EPHEMERIS_TYPE = 0
CLASSIFICATION_TYPE = U
NORAD_CAT_ID   = 66948
ELEMENT_SET_NO = 999
REV_AT_EPOCH   = 329
BSTAR          = -.74176E-2
MEAN_MOTION_DOT = -.1014982E-1
MEAN_MOTION_DDOT = 0

CCSDS_OMM_VERS = 2.0
CREATION_DATE  = 
ORIGINATOR     = 

OBJECT_NAME    = STARLINK-36096
OBJECT_ID      = 2025-286AA
CENTER_NAME    = EARTH
REF_FRAME      = TEME
TIME_SYSTEM    = UTC
MEAN_ELEMENT_THEORY = SGP/SGP4

EPOCH          = 2025-12-20T20:00:01.999008
MEAN_MOTION    = 15.74832193
ECCENTRICITY   = .0000921
INCLINATION    = 53.1567
RA_OF_ASC_NODE = 9.7224
ARG_OF_PERICENTER = 99.9543
MEAN_ANOMALY   = 252.3903

EPHEMERIS_TYPE = 0
CLASSIFICATION_TYPE = U
NORAD_CAT_ID   = 66949
ELEMENT_SET_NO = 999
REV_AT_EPOCH   = 329
BSTAR          = -.65066E-2
MEAN_MOTION_DOT = -.883606E-2
MEAN_MOTION_DDOT = 0

CCSDS_OMM_VERS = 2.0
CREATION_DATE  = 
ORIGINATOR     = 

OBJECT_NAME    = STARLINK-36111
OBJECT_ID      = 2025-286AB
CENTER_NAME    = EARTH
REF_FRAME      = TEME
TIME_SYSTEM    = UTC
MEAN_ELEMENT_THEORY = SGP/SGP4

EPOCH          = 2025-12-20T20:00:01.999008
MEAN_MOTION    = 15.74685289
ECCENTRICITY   = .000124
INCLINATION    = 53.1569
RA_OF_ASC_NODE = 9.7138
ARG_OF_PERICENTER = 101.8577
MEAN_ANOMALY   = 254.4246

EPHEMERIS_TYPE = 0
CLASSIFICATION_TYPE = U
NORAD_CAT_ID   = 66950
ELEMENT_SET_NO = 999
REV_AT_EPOCH   = 329
BSTAR          = -.57379E-2
MEAN_MOTION_DOT = -.783738E-2
MEAN_MOTION_DDOT = 0

CCSDS_OMM_VERS = 2.0
CREATION_DATE  = 
ORIGINATOR     = 

OBJECT_NAME    = STARLINK-35999
OBJECT_ID      = 2025-286AC
CENTER_NAME    = EARTH
REF_FRAME      = TEME
TIME_SYSTEM    = UTC
MEAN_ELEMENT_THEORY = SGP/SGP4

EPOCH          = 2025-12-20T20:00:01.999008
MEAN_MOTION    = 15.74582793
ECCENTRICITY   = .0000975
INCLINATION    = 53.1568
RA_OF_ASC_NODE = 9.7097
ARG_OF_PERICENTER = 112.1900
MEAN_ANOMALY   = 246.0630

EPHEMERIS_TYPE = 0
CLASSIFICATION_TYPE = U
NORAD_CAT_ID   = 66951
ELEMENT_SET_NO = 999
REV_AT_EPOCH   = 329
BSTAR          = -.43381E-2
MEAN_MOTION_DOT = -.602741E-2
MEAN_MOTION_DDOT = 0

